ONEWEB-0377             
1 49303U 21090AA  23268.80563554 -.00000876  00000+0 -21863-2 0  9992
2 49303  87.9148 112.6222 0001788  74.4702 285.6628 13.20777311 99122
ONEWEB-0378             
1 49304U 21090AB  23269.07183794  .00000081  00000+0  16741-3 0  9993
2 49304  87.9167 112.5655 0001740  94.4999 265.6333 13.20771875 99749
ONEWEB-0379             
1 49305U 21090AC  23268.64426657 -.00000223  00000+0 -63556-3 0  9990
2 49305  87.8976 127.8900 0001805  81.4642 278.6692 13.14501166 96771
ONEWEB-0380             
1 49306U 21090AD  23269.16551965  .00000087  00000+0  18535-3 0  9993
2 49306  87.9239 143.0092 0001630  76.9347 283.1967 13.19726275 96461
ONEWEB-0381             
1 49307U 21090AE  23269.16969503  .00000054  00000+0  10043-3 0  9995
2 49307  87.9214 112.4966 0001600  81.8822 278.2493 13.20770656 99786
ONEWEB-0382             
1 49308U 21090AF  23268.62675112 -.00000014  00000+0 -66772-4 0  9995
2 49308  87.9155 112.6561 0001505  99.1891 260.9413 13.20770458 98404
ONEWEB-0383             
1 49309U 21090AG  23269.17073558 -.00000170  00000+0 -49193-3 0  9993
2 49309  87.8984 127.7684 0001791  87.4040 272.7294 13.14501242 98167
ONEWEB-0384             
1 49310U 21090AH  23268.62255985  .00000286  00000+0  67125-3 0  9991
2 49310  87.9167 112.6550 0001497 106.4958 253.6340 13.20770329 98410
